{"type": "FeatureCollection", "features": [ {"type": "Feature", "properties": {"norad_id": 37216, "name": "COSMO-SKYMED 4", "group": "resource", "lat": -81.26627732223834, "lon": -67.76728424623582, "alt_km": 630.8821925345001, "timestamp": "2025-12-21T09:37:22.305195+00:00", "meta": {"OBJECT_NAME": "COSMO-SKYMED 4", "OBJECT_ID": "2010-060A", "EPOCH": "2025-12-21T05:11:05.197632", "MEAN_MOTION": 14.82155476, "ECCENTRICITY": 0.0001431, "INCLINATION": 97.8799, "RA_OF_ASC_NODE": 176.4112, "ARG_OF_PERICENTER": 82.6751, "MEAN_ANOMALY": 277.4624, "EPHEMERIS_TYPE": 0, "CLASSIFICATION_TYPE": "U", "NORAD_CAT_ID": 37216, "ELEMENT_SET_NO": 999, "REV_AT_EPOCH": 81820, "BSTAR": 9.4204e-05, "MEAN_MOTION_DOT": 6.98e-06, "MEAN_MOTION_DDOT": 0}, "tle": {"line1": "1 37216U 10060A   25355.21603238  .00000698  00000+0  94204-4 0  9996", "line2": "2 37216  97.8799 176.4112 0001431  82.6751 277.4624 14.82155476818204"}}, "geometry": {"type": "Point", "coordinates": [-67.76728424623582, -81.26627732223834]}}, {"type": "Feature", "properties": {"norad_id": 37387, "name": "RESOURCESAT-2", "group": "resource", "lat": 33.05624667169865, "lon": -115.30960111746703, "alt_km": 820.4939576732213, "timestamp": "2025-12-21T09:37:22.305205+00:00", "meta": {"OBJECT_NAME": "RESOURCESAT-2", "OBJECT_ID": "2011-015A", "EPOCH": "2025-12-21T03:52:09.291360", "MEAN_MOTION": 14.21600289, "ECCENTRICITY": 0.0006034, "INCLINATION": 98.7865, "RA_OF_ASC_NODE": 58.6748, "ARG_OF_PERICENTER": 19.9212, "MEAN_ANOMALY": 340.22, "EPHEMERIS_TYPE": 0, "CLASSIFICATION_TYPE": "U", "NORAD_CAT_ID": 37387, "ELEMENT_SET_NO": 999, "REV_AT_EPOCH": 76088, "BSTAR": 6.051e-05, "MEAN_MOTION_DOT": 8.8e-07, "MEAN_MOTION_DDOT": 0}, "tle": {"line1": "1 37387U 11015A   25355.16121865  .00000088  00000+0  60510-4 0  9997", "line2": "2 37387  98.7865  58.6748 0006034  19.9212 340.2200 14.21600289760881"}}, "geometry": {"type": "Point", "coordinates": [-115.30960111746703, 33.05624667169865]}}, {"type": "Feature", "properties": {"norad_id": 37781, "name": "HAIYANG-2A", "group": "resource", "lat": -55.977548403357225, "lon": 10.307435017105828, "alt_km": 975.7668152033175, "timestamp": "2025-12-21T09:37:22.305216+00:00", "meta": {"OBJECT_NAME": "HAIYANG-2A", "OBJECT_ID": "2011-043A", "EPOCH": "2025-12-21T04:40:29.771328", "MEAN_MOTION": 13.78836321, "ECCENTRICITY": 0.0001646, "INCLINATION": 99.3371, "RA_OF_ASC_NODE": 355.999, "ARG_OF_PERICENTER": 72.7436, "MEAN_ANOMALY": 287.3896, "EPHEMERIS_TYPE": 0, "CLASSIFICATION_TYPE": "U", "NORAD_CAT_ID": 37781, "ELEMENT_SET_NO": 999, "REV_AT_EPOCH": 72215, "BSTAR": 9.884e-05, "MEAN_MOTION_DOT": 5.7e-07, "MEAN_MOTION_DDOT": 0}, "tle": {"line1": "1 37781U 11043A   25355.19478902  .00000057  00000+0  98840-4 0  9999", "line2": "2 37781  99.3371 355.9990 0001646  72.7436 287.3896 13.78836321722158"}}, "geometry": {"type": "Point", "coordinates": [10.307435017105828, -55.977548403357225]}}, {"type": "Feature", "properties": {"norad_id": 37791, "name": "RASAT", "group": "resource", "lat": -47.14092079142448, "lon": 93.32024550086615, "alt_km": 673.602856792907, "timestamp": "2025-12-21T09:37:22.305226+00:00", "meta": {"OBJECT_NAME": "RASAT", "OBJECT_ID": "2011-044D", "EPOCH": "2025-12-21T05:12:57.591072", "MEAN_MOTION": 14.67919069, "ECCENTRICITY": 0.00215, "INCLINATION": 98.0653, "RA_OF_ASC_NODE": 84.3495, "ARG_OF_PERICENTER": 39.5274, "MEAN_ANOMALY": 23.2873, "EPHEMERIS_TYPE": 0, "CLASSIFICATION_TYPE": "U", "NORAD_CAT_ID": 37791, "ELEMENT_SET_NO": 999, "REV_AT_EPOCH": 76707, "BSTAR": 2.4358e-05, "MEAN_MOTION_DOT": 9.1e-07, "MEAN_MOTION_DDOT": 0}, "tle": {"line1": "1 37791U 11044D   25355.21733323  .00000091  00000+0  24358-4 0  9996", "line2": "2 37791  98.0653  84.3495 0021500  39.5274  23.2873 14.67919069767075"}}, "geometry": {"type": "Point", "coordinates": [93.32024550086615, -47.14092079142448]}}, {"type": "Feature", "properties": {"norad_id": 37841, "name": "SRMSAT", "group": "resource", "lat": -19.712259816724316, "lon": -43.89585332590565, "alt_km": 861.326924005225, "timestamp": "2025-12-21T09:37:22.305237+00:00", "meta": {"OBJECT_NAME": "SRMSAT", "OBJECT_ID": "2011-058D", "EPOCH": "2025-12-21T05:09:06.002784", "MEAN_MOTION": 14.11514057, "ECCENTRICITY": 0.0011964, "INCLINATION": 19.9726, "RA_OF_ASC_NODE": 56.6591, "ARG_OF_PERICENTER": 46.4433, "MEAN_ANOMALY": 346.0318, "EPHEMERIS_TYPE": 0, "CLASSIFICATION_TYPE": "U", "NORAD_CAT_ID": 37841, "ELEMENT_SET_NO": 999, "REV_AT_EPOCH": 73264, "BSTAR": 6.4008e-05, "MEAN_MOTION_DOT": 3.83e-06, "MEAN_MOTION_DDOT": 0}, "tle": {"line1": "1 37841U 11058D   25355.21465281  .00000383  00000+0  64008-4 0  9992", "line2": "2 37841  19.9726  56.6591 0011964  46.4433 346.0318 14.11514057732642"}}, "geometry": {"type": "Point", "coordinates": [-43.89585332590565, -19.712259816724316]}}, {"type": "Feature", "properties": {"norad_id": 38012, "name": "PLEIADES 1A", "group": "resource", "lat": 3.1817409069945386, "lon": -111.50550434294631, "alt_km": 700.5085103590682, "timestamp": "2025-12-21T09:37:22.305247+00:00", "meta": {"OBJECT_NAME": "PLEIADES 1A", "OBJECT_ID": "2011-076F", "EPOCH": "2025-12-21T05:49:43.600800", "MEAN_MOTION": 14.58568059, "ECCENTRICITY": 0.000115, "INCLINATION": 98.1822, "RA_OF_ASC_NODE": 67.8806, "ARG_OF_PERICENTER": 76.645, "MEAN_ANOMALY": 350.4109, "EPHEMERIS_TYPE": 0, "CLASSIFICATION_TYPE": "U", "NORAD_CAT_ID": 38012, "ELEMENT_SET_NO": 999, "REV_AT_EPOCH": 74605, "BSTAR": 3.8402e-05, "MEAN_MOTION_DOT": 1.33e-06, "MEAN_MOTION_DDOT": 0}, "tle": {"line1": "1 38012U 11076F   25355.24286575  .00000133  00000+0  38402-4 0  9995", "line2": "2 38012  98.1822  67.8806 0001150  76.6450 350.4109 14.58568059746051"}}, "geometry": {"type": "Point", "coordinates": [-111.50550434294631, 3.1817409069945386]}}, {"type": "Feature", "properties": {"norad_id": 38038, "name": "ZIYUAN 1-02C (ZY 1-02C)", "group": "resource", "lat": 14.862625988902698, "lon": -116.48859029457331, "alt_km": 762.3788655879389, "timestamp": "2025-12-21T09:37:22.305258+00:00", "meta": {"OBJECT_NAME": "ZIYUAN 1-02C (ZY 1-02C)", "OBJECT_ID": "2011-079A", "EPOCH": "2025-12-21T04:14:31.426368", "MEAN_MOTION": 14.38020552, "ECCENTRICITY": 0.0007464, "INCLINATION": 98.4329, "RA_OF_ASC_NODE": 61.0351, "ARG_OF_PERICENTER": 116.42, "MEAN_ANOMALY": 328.3899, "EPHEMERIS_TYPE": 0, "CLASSIFICATION_TYPE": "U", "NORAD_CAT_ID": 38038, "ELEMENT_SET_NO": 999, "REV_AT_EPOCH": 73362, "BSTAR": 0.00010805, "MEAN_MOTION_DOT": 2.84e-06, "MEAN_MOTION_DDOT": 0}, "tle": {"line1": "1 38038U 11079A   25355.17675262  .00000284  00000+0  10805-3 0  9996", "line2": "2 38038  98.4329  61.0351 0007464 116.4200 328.3899 14.38020552733623"}}, "geometry": {"type": "Point", "coordinates": [-116.48859029457331, 14.862625988902698]}}, {"type": "Feature", "properties": {"norad_id": 38338, "name": "ARIRANG-3 (KOMPSAT-3)", "group": "resource", "lat": 7.4849375890598004, "lon": 131.15951068394926, "alt_km": 692.0498038550013, "timestamp": "2025-12-21T09:37:22.305268+00:00", "meta": {"OBJECT_NAME": "ARIRANG-3 (KOMPSAT-3)", "OBJECT_ID": "2012-025B", "EPOCH": "2025-12-21T03:54:28.977696", "MEAN_MOTION": 14.61722609, "ECCENTRICITY": 0.0004862, "INCLINATION": 98.3335, "RA_OF_ASC_NODE": 309.8161, "ARG_OF_PERICENTER": 309.2097, "MEAN_ANOMALY": 50.8671, "EPHEMERIS_TYPE": 0, "CLASSIFICATION_TYPE": "U", "NORAD_CAT_ID": 38338, "ELEMENT_SET_NO": 999, "REV_AT_EPOCH": 72533, "BSTAR": 8.6299e-05, "MEAN_MOTION_DOT": 3.81e-06, "MEAN_MOTION_DDOT": 0}, "tle": {"line1": "1 38338U 12025B   25355.16283539  .00000381  00000+0  86299-4 0  9991", "line2": "2 38338  98.3335 309.8161 0004862 309.2097  50.8671 14.61722609725331"}}, "geometry": {"type": "Point", "coordinates": [131.15951068394926, 7.4849375890598004]}}, {"type": "Feature", "properties": {"norad_id": 38709, "name": "EXACTVIEW-1 (ADS-1B)", "group": "resource", "lat": 72.94262350712309, "lon": -45.06818459254488, "alt_km": 807.0642340721051, "timestamp": "2025-12-21T09:37:22.305278+00:00", "meta": {"OBJECT_NAME": "EXACTVIEW-1 (ADS-1B)", "OBJECT_ID": "2012-039C", "EPOCH": "2025-12-21T00:42:28.133856", "MEAN_MOTION": 14.24910952, "ECCENTRICITY": 0.001027, "INCLINATION": 98.9639, "RA_OF_ASC_NODE": 103.5935, "ARG_OF_PERICENTER": 329.6002, "MEAN_ANOMALY": 30.458, "EPHEMERIS_TYPE": 0, "CLASSIFICATION_TYPE": "U", "NORAD_CAT_ID": 38709, "ELEMENT_SET_NO": 999, "REV_AT_EPOCH": 69733, "BSTAR": 6.1054e-05, "MEAN_MOTION_DOT": 9.6e-07, "MEAN_MOTION_DDOT": 0}, "tle": {"line1": "1 38709U 12039C   25355.02949229  .00000096  00000+0  61054-4 0  9993", "line2": "2 38709  98.9639 103.5935 0010270 329.6002  30.4580 14.24910952697336"}}, "geometry": {"type": "Point", "coordinates": [-45.06818459254488, 72.94262350712309]}}, {"type": "Feature", "properties": {"norad_id": 38755, "name": "SPOT 6", "group": "resource", "lat": 76.82079002589006, "lon": -82.2030334965901, "alt_km": 689.7946607650365, "timestamp": "2025-12-21T09:37:22.305288+00:00", "meta": {"OBJECT_NAME": "SPOT 6", "OBJECT_ID": "2012-047A", "EPOCH": "2025-12-21T04:13:30.416736", "MEAN_MOTION": 14.5853899, "ECCENTRICITY": 0.0001303, "INCLINATION": 98.1568, "RA_OF_ASC_NODE": 59.8054, "ARG_OF_PERICENTER": 78.9911, "MEAN_ANOMALY": 281.1435, "EPHEMERIS_TYPE": 0, "CLASSIFICATION_TYPE": "U", "NORAD_CAT_ID": 38755, "ELEMENT_SET_NO": 999, "REV_AT_EPOCH": 70710, "BSTAR": 5.7006e-05, "MEAN_MOTION_DOT": 2.2e-06, "MEAN_MOTION_DDOT": 0}, "tle": {"line1": "1 38755U 12047A   25355.17604649  .00000220  00000+0  57006-4 0  9994", "line2": "2 38755  98.1568  59.8054 0001303  78.9911 281.1435 14.58538990707101"}}, "geometry": {"type": "Point", "coordinates": [-82.2030334965901, 76.82079002589006]}}]}